{"fetched_at":"2026-07-13T18:17:02.296Z","source":"https://celestrak.org/NORAD/elements/gp.php?NAME=JILIN&FORMAT=JSON","constellation":"jilin-1-early","records":[{"OBJECT_NAME":"JILIN-1","OBJECT_ID":"2015-057D","EPOCH":"2026-07-13T06:40:05.066688","CLASSIFICATION_TYPE":"U","MEAN_MOTION":14.78199696,"ECCENTRICITY":0.0017045,"INCLINATION":97.6519,"RA_OF_ASC_NODE":192.3506,"ARG_OF_PERICENTER":173.0479,"MEAN_ANOMALY":187.0972,"EPHEMERIS_TYPE":0,"NORAD_CAT_ID":40961,"ELEMENT_SET_NO":999,"REV_AT_EPOCH":57946,"BSTAR":0.000065073181,"MEAN_MOTION_DOT":0.00000424,"MEAN_MOTION_DDOT":0},{"OBJECT_NAME":"JILIN-1 03","OBJECT_ID":"2017-002B","EPOCH":"2026-07-13T07:25:42.002688","CLASSIFICATION_TYPE":"U","MEAN_MOTION":15.42200417,"ECCENTRICITY":0.00079464,"INCLINATION":97.1945,"RA_OF_ASC_NODE":201.0365,"ARG_OF_PERICENTER":84.4047,"MEAN_ANOMALY":275.8107,"EPHEMERIS_TYPE":0,"NORAD_CAT_ID":41914,"ELEMENT_SET_NO":999,"REV_AT_EPOCH":52588,"BSTAR":0.00019827479,"MEAN_MOTION_DOT":0.00008432,"MEAN_MOTION_DDOT":0},{"OBJECT_NAME":"JILIN-1 04","OBJECT_ID":"2017-074A","EPOCH":"2026-07-13T06:57:20.079072","CLASSIFICATION_TYPE":"U","MEAN_MOTION":15.43097452,"ECCENTRICITY":0.00052589,"INCLINATION":97.4876,"RA_OF_ASC_NODE":304.6121,"ARG_OF_PERICENTER":105.4709,"MEAN_ANOMALY":254.712,"EPHEMERIS_TYPE":0,"NORAD_CAT_ID":43022,"ELEMENT_SET_NO":999,"REV_AT_EPOCH":47829,"BSTAR":0.00019004845,"MEAN_MOTION_DOT":0.00008316,"MEAN_MOTION_DDOT":0},{"OBJECT_NAME":"JILIN-1 05","OBJECT_ID":"2017-074B","EPOCH":"2026-07-13T06:39:44.678880","CLASSIFICATION_TYPE":"U","MEAN_MOTION":15.34266231,"ECCENTRICITY":0.00063694,"INCLINATION":97.4882,"RA_OF_ASC_NODE":300.793,"ARG_OF_PERICENTER":129.96,"MEAN_ANOMALY":230.2203,"EPHEMERIS_TYPE":0,"NORAD_CAT_ID":43023,"ELEMENT_SET_NO":999,"REV_AT_EPOCH":47800,"BSTAR":0.00015330688,"MEAN_MOTION_DOT":0.00005006,"MEAN_MOTION_DDOT":0},{"OBJECT_NAME":"JILIN-1 06","OBJECT_ID":"2017-074C","EPOCH":"2026-07-13T06:04:31.713312","CLASSIFICATION_TYPE":"U","MEAN_MOTION":15.33982235,"ECCENTRICITY":0.00079707,"INCLINATION":97.4807,"RA_OF_ASC_NODE":297.743,"ARG_OF_PERICENTER":139.97,"MEAN_ANOMALY":220.2131,"EPHEMERIS_TYPE":0,"NORAD_CAT_ID":43024,"ELEMENT_SET_NO":999,"REV_AT_EPOCH":47783,"BSTAR":0.0001095945,"MEAN_MOTION_DOT":0.00003524,"MEAN_MOTION_DDOT":0},{"OBJECT_NAME":"JILIN-1 07","OBJECT_ID":"2018-008E","EPOCH":"2026-07-13T07:11:58.164864","CLASSIFICATION_TYPE":"U","MEAN_MOTION":15.35144443,"ECCENTRICITY":0.00069147,"INCLINATION":97.1763,"RA_OF_ASC_NODE":213.5381,"ARG_OF_PERICENTER":336.1015,"MEAN_ANOMALY":23.9907,"EPHEMERIS_TYPE":0,"NORAD_CAT_ID":43159,"ELEMENT_SET_NO":999,"REV_AT_EPOCH":46900,"BSTAR":0.0001559773,"MEAN_MOTION_DOT":0.00005245,"MEAN_MOTION_DDOT":0},{"OBJECT_NAME":"JILIN-1 08","OBJECT_ID":"2018-008F","EPOCH":"2026-07-13T07:38:46.696992","CLASSIFICATION_TYPE":"U","MEAN_MOTION":15.33996771,"ECCENTRICITY":0.00055393,"INCLINATION":97.1801,"RA_OF_ASC_NODE":212.8433,"ARG_OF_PERICENTER":359.8855,"MEAN_ANOMALY":0.2386,"EPHEMERIS_TYPE":0,"NORAD_CAT_ID":43160,"ELEMENT_SET_NO":999,"REV_AT_EPOCH":46895,"BSTAR":0.00011081215,"MEAN_MOTION_DOT":0.00003569,"MEAN_MOTION_DDOT":0},{"OBJECT_NAME":"JILIN-1 09","OBJECT_ID":"2019-005B","EPOCH":"2026-07-13T07:18:16.736832","CLASSIFICATION_TYPE":"U","MEAN_MOTION":15.20731354,"ECCENTRICITY":0.00024887,"INCLINATION":97.4748,"RA_OF_ASC_NODE":289.0478,"ARG_OF_PERICENTER":40.516,"MEAN_ANOMALY":319.626,"EPHEMERIS_TYPE":0,"NORAD_CAT_ID":43943,"ELEMENT_SET_NO":999,"REV_AT_EPOCH":41311,"BSTAR":0.00011515621,"MEAN_MOTION_DOT":0.00002464,"MEAN_MOTION_DDOT":0},{"OBJECT_NAME":"JILIN-1 10","OBJECT_ID":"2019-005E","EPOCH":"2026-07-13T07:01:16.904064","CLASSIFICATION_TYPE":"U","MEAN_MOTION":15.25993997,"ECCENTRICITY":0.00083982,"INCLINATION":97.4799,"RA_OF_ASC_NODE":293.1023,"ARG_OF_PERICENTER":176.0621,"MEAN_ANOMALY":184.0684,"EPHEMERIS_TYPE":0,"NORAD_CAT_ID":43946,"ELEMENT_SET_NO":999,"REV_AT_EPOCH":41329,"BSTAR":0.00013488945,"MEAN_MOTION_DOT":0.00003396,"MEAN_MOTION_DDOT":0}]}
