JILIN-1                 
1 40961U 15057D   26194.27783642  .00000424  00000+0  65073-4 0  9993
2 40961  97.6519 192.3506 0017045 173.0479 187.0972 14.78199696579468
JILIN-1 03              
1 41914U 17002B   26194.30951392  .00008432  00000+0  19827-3 0  9999
2 41914  97.1945 201.0365 0007946  84.4047 275.8107 15.42200417525880
JILIN-1 04              
1 43022U 17074A   26194.28981573  .00008316  00000+0  19005-3 0  9990
2 43022  97.4876 304.6121 0005258 105.4709 254.7120 15.43097452478298
JILIN-1 05              
1 43023U 17074B   26194.27760045  .00005006  00000+0  15331-3 0  9990
2 43023  97.4882 300.7930 0006369 129.9600 230.2203 15.34266231478009
JILIN-1 06              
1 43024U 17074C   26194.25314483  .00003524  00000+0  10959-3 0  9994
2 43024  97.4807 297.7430 0007970 139.9700 220.2131 15.33982235477835
JILIN-1 07              
1 43159U 18008E   26194.29997876  .00005245  00000+0  15598-3 0  9994
2 43159  97.1763 213.5381 0006914 336.1015  23.9907 15.35144443469002
JILIN-1 08              
1 43160U 18008F   26194.31859603  .00003569  00000+0  11081-3 0  9994
2 43160  97.1801 212.8433 0005539 359.8855   0.2386 15.33996771468952
JILIN-1 09              
1 43943U 19005B   26194.30436038  .00002464  00000+0  11516-3 0  9999
2 43943  97.4748 289.0478 0002488  40.5160 319.6260 15.20731354413118
JILIN-1 10              
1 43946U 19005E   26194.29255676  .00003396  00000+0  13489-3 0  9993
2 43946  97.4799 293.1023 0008398 176.0621 184.0684 15.25993997413293
